NORAD_CAT_ID,OBJECT_NAME,OBJECT_TYPE,EPOCH,MEAN_MOTION,ECCENTRICITY,INCLINATION,RA_OF_ASC_NODE,ARG_OF_PERICENTER,MEAN_ANOMALY,BSTAR,MEAN_MOTION_DOT,MEAN_MOTION_DDOT,TLE_LINE0,TLE_LINE1,TLE_LINE2,SEMIMAJOR_AXIS,PERIOD,APOGEE,PERIGEE,DECAYED
52833.0,STARLINK-4086,PAYLOAD,2022-10-28 22:00:01,15.08833294,0.0001609,53.2142,145.7965,62.0752,157.6482,0.00084718,0.00013218,0.0,0 STARLINK-4086,1 52833U 22062D   22301.91668981  .00013218  00000-0  84718-3 0  9995,2 52833  53.2142 145.7965 0001609  62.0752 157.6482 15.08833294  1305,6917.901,95.438,540.879,538.653,0.0
52833.0,STARLINK-4086,PAYLOAD,2022-10-29 10:00:00,15.08804522,0.0001357,53.2151,143.55,68.0258,349.0439,0.003297,0.00052524,0.0,0 STARLINK-4086,1 52833U 22062D   22302.41667824  .00052524  00000-0  32970-2 0  9991,2 52833  53.2151 143.5500 0001357  68.0258 349.0439 15.08804522 20507,6917.989000000001,95.44,540.793,538.915,0.0
52833.0,STARLINK-4086,PAYLOAD,2022-10-29 12:00:00,15.08815919,0.0001382,53.2153,143.1759,69.4735,80.4858,0.0026673,0.0004239,0.0,0 STARLINK-4086,1 52833U 22062D   22302.50001157  .00042390  00000-0  26673-2 0  9995,2 52833  53.2153 143.1759 0001382  69.4735  80.4858 15.08815919  1304,6917.954000000002,95.439,540.775,538.863,0.0
52833.0,STARLINK-4086,PAYLOAD,2022-10-29 22:00:01,15.08826829,0.0001530999999999,53.2159,141.3074,60.5436,193.9646,0.0018027999999999,0.0002851,0.0,0 STARLINK-4086,1 52833U 22062D   22302.91668981  .00028510  00000-0  18028-2 0  9997,2 52833  53.2159 141.3074 0001531  60.5436 193.9646 15.08826829  1303,6917.920999999999,95.438,540.845,538.727,0.0
52833.0,STARLINK-4086,PAYLOAD,2022-10-30 00:00:00,15.08821686,0.0001501,53.2158,140.9334,59.1267,288.2181,0.0029959,0.00047691,0.0,0 STARLINK-4086,1 52833U 22062D   22303.00001157  .00047691  00000-0  29959-2 0  9990,2 52833  53.2158 140.9334 0001501  59.1267 288.2181 15.08821686 20599,6917.936,95.439,540.84,538.763,0.0
52833.0,STARLINK-4086,PAYLOAD,2022-10-30 14:00:01,15.08827062,0.0001343,53.2159,138.313,68.2856,209.3421,0.00040277,6.126e-05,0.0,0 STARLINK-4086,1 52833U 22062D   22303.58334491  .00006126  00000-0  40277-3 0  9998,2 52833  53.2159 138.3130 0001343  68.2856 209.3421 15.08827062  1307,6917.92,95.438,540.714,538.856,0.0
52833.0,STARLINK-4086,PAYLOAD,2022-10-30 22:00:01,15.08811447,0.0001482,53.216,136.8184,57.9145,231.3616,0.0020282,0.00032113,0.0,0 STARLINK-4086,1 52833U 22062D   22303.91668981  .00032113  00000-0  20282-2 0  9997,2 52833  53.2160 136.8184 0001482  57.9145 231.3616 15.08811447  1302,6917.968000000003,95.439,540.8580000000002,538.807,0.0
52833.0,STARLINK-4086,PAYLOAD,2022-10-31 14:00:01,15.08847067,0.0001406,53.2162,133.8241,66.3008,246.0717,0.000104,1.368e-05,0.0,0 STARLINK-4086,1 52833U 22062D   22304.58334491  .00001368  00000-0  10400-3 0  9997,2 52833  53.2162 133.8241 0001406  66.3008 246.0717 15.08847067  1305,6917.859,95.437,540.696,538.751,0.0
52833.0,STARLINK-4086,PAYLOAD,2022-10-31 22:00:01,15.08837486,0.0001582,53.2164,132.3294,57.7453,266.2966,0.00037421,5.672e-05,0.0,0 STARLINK-4086,1 52833U 22062D   22304.91668981  .00005672  00000-0  37421-3 0  9992,2 52833  53.2164 132.3294 0001582  57.7453 266.2966 15.08837486  1306,6917.888000000001,95.438,540.847,538.659,0.0
52833.0,STARLINK-4086,PAYLOAD,2022-11-01 00:00:02,15.08838721,0.0001568,53.2162,131.9553,55.8262,1.1149,5.915800000000001e-05,6.54e-06,0.0,0 STARLINK-4086,1 52833U 22062D   22305.00002315  .00000654  00000-0  59158-4 0  9993,2 52833  53.2162 131.9553 0001568  55.8262   1.1149 15.08838721 20895,6917.884,95.438,540.8340000000002,538.665,0.0
52833.0,STARLINK-4086,PAYLOAD,2022-11-01 14:00:01,15.08842802,0.000158,53.2168,129.3351,66.1437,281.0123,-0.00027873,-4.722e-05,0.0,0 STARLINK-4086,1 52833U 22062D   22305.58334491 -.00004722  00000-0 -27873-3 0  9999,2 52833  53.2168 129.3351 0001580  66.1437 281.0123 15.08842802  1302,6917.871999999999,95.437,540.83,538.644,0.0
52833.0,STARLINK-4086,PAYLOAD,2022-11-01 22:00:00,15.08818259,0.0001719,53.2168,127.8404,58.5586,300.1983,0.0026454,0.0004204,0.0,0 STARLINK-4086,1 52833U 22062D   22305.91667824  .00042040  00000-0  26454-2 0  9991,2 52833  53.2168 127.8404 0001719  58.5586 300.1983 15.08818259  1304,6917.946999999999,95.439,541.001,538.623,0.0
52833.0,STARLINK-4086,PAYLOAD,2022-11-02 06:00:00,15.08850153,0.0001573,53.217,126.3425,61.9918,308.3536,-0.0010229,-0.00016535,0.0,0 STARLINK-4086,1 52833U 22062D   22306.25001157 -.00016535  00000-0 -10229-2 0  9995,2 52833  53.2170 126.3425 0001573  61.9918 308.3536 15.08850153 21089,6917.849,95.437,540.803,538.626,0.0
52833.0,STARLINK-4086,PAYLOAD,2022-11-02 14:00:01,15.08852975,0.0001536,53.2172,124.8467,64.6172,317.3263,-0.0022044,-0.00035212,0.0,0 STARLINK-4086,1 52833U 22062D   22306.58334491 -.00035212  00000-0 -22044-2 0  9992,2 52833  53.2172 124.8467 0001536  64.6172 317.3263 15.08852975  1305,6917.840999999999,95.437,540.768,538.643,0.0
52833.0,STARLINK-4086,PAYLOAD,2022-11-02 18:00:02,15.08833799,0.0001606,53.2173,124.1007,60.0327,147.7765,-0.00098069,-0.00015859,0.0,0 STARLINK-4086,1 52833U 22062D   22306.75002315 -.00015859  00000-0 -98069-3 0  9994,2 52833  53.2173 124.1007 0001606  60.0327 147.7765 15.08833799  1304,6917.899,95.438,540.875,538.653,0.0
52833.0,STARLINK-4086,PAYLOAD,2022-11-03 12:09:37,15.08840959,0.0001625,53.2164,120.7007,67.7129,292.4035,0.00017202,2.451e-05,0.0,0 STARLINK-4086,1 52833U 22062D   22307.50668880  .00002451  00000-0  17202-3 0  9995,2 52833  53.2164 120.7007 0001625  67.7129 292.4035 15.08840959 21273,6917.877,95.437,540.867,538.618,0.0
52833.0,STARLINK-4086,PAYLOAD,2022-11-03 15:20:24,15.08841886,0.0001613,53.2163,120.1057,67.4129,292.7034,0.00016914,2.405e-05,0.0,0 STARLINK-4086,1 52833U 22062D   22307.63916819  .00002405  00000-0  16914-3 0  9995,2 52833  53.2163 120.1057 0001613  67.4129 292.7034 15.08841886 21299,6917.875,95.437,540.855,538.624,0.0
52833.0,STARLINK-4086,PAYLOAD,2022-11-04 04:03:28,15.08852666,0.0001597,53.217,117.7282,60.9246,299.1906,0.00023249,3.415e-05,0.0,0 STARLINK-4086,1 52833U 22062D   22308.16908160  .00003415  00000-0  23249-3 0  9995,2 52833  53.2170 117.7282 0001597  60.9246 299.1906 15.08852666 21374,6917.842,95.437,540.811,538.602,0.0
52833.0,STARLINK-4086,PAYLOAD,2022-11-04 08:49:38,15.08844322,0.0001608,53.2162,116.8351,65.551,294.5649,7.1061e-05,8.43e-06,0.0,0 STARLINK-4086,1 52833U 22062D   22308.36780413  .00000843  00000-0  71061-4 0  9994,2 52833  53.2162 116.8351 0001608  65.5510 294.5649 15.08844322 21407,6917.8669999999975,95.437,540.845,538.62,0.0
52833.0,STARLINK-4086,PAYLOAD,2022-11-04 12:00:24,15.08843121,0.0001526,53.2164,116.2402,67.8709,292.2445,4.3593e-05,4.06e-06,0.0,0 STARLINK-4086,1 52833U 22062D   22308.50028396  .00000406  00000-0  43593-4 0  9999,2 52833  53.2164 116.2402 0001526  67.8709 292.2445 15.08843121 21421,6917.871,95.437,540.7919999999998,538.68,0.0
52833.0,STARLINK-4086,PAYLOAD,2022-11-04 18:21:56,15.08848324,0.0001554,53.2165,115.0512,64.4085,295.7067,0.00012323,1.674e-05,0.0,0 STARLINK-4086,1 52833U 22062D   22308.76524140  .00001674  00000-0  12323-3 0  9999,2 52833  53.2165 115.0512 0001554  64.4085 295.7067 15.08848324 21464,6917.855,95.437,540.795,538.645,0.0
52833.0,STARLINK-4086,PAYLOAD,2022-11-05 03:54:16,15.08835856,0.0001514,53.2169,113.2679,57.6688,302.4451,-4.6767e-05,-1.032e-05,0.0,0 STARLINK-4086,1 52833U 22062D   22309.16268707 -.00001032  00000-0 -46767-4 0  9998,2 52833  53.2169 113.2679 0001514  57.6688 302.4451 15.08835856 21527,6917.893,95.438,540.805,538.711,0.0
52833.0,STARLINK-4086,PAYLOAD,2022-11-05 11:51:12,15.08823166,0.0001495,53.2165,111.7795,63.0361,297.0784,-0.00023662,-4.05e-05,0.0,0 STARLINK-4086,1 52833U 22062D   22309.49389371 -.00004050  00000-0 -23662-3 0  9996,2 52833  53.2165 111.7795 0001495  63.0361 297.0784 15.08823166 21576,6917.932,95.439,540.831,538.763,0.0
52833.0,STARLINK-4086,PAYLOAD,2022-11-05 18:12:45,15.0882704,0.000153,53.2175,110.5911,59.72,300.3943,-4.9469e-05,-1.075e-05,0.0,0 STARLINK-4086,1 52833U 22062D   22309.75886164 -.00001075  00000-0 -49469-4 0  9995,2 52833  53.2175 110.5911 0001530  59.7200 300.3943 15.08827040 21613,6917.92,95.438,540.8430000000002,538.727,0.0
52833.0,STARLINK-4086,PAYLOAD,2022-11-06 11:41:59,15.08829694,0.0001595999999999,53.2171,107.3202,52.9664,307.1474,1.53e-05,-4.5e-07,0.0,0 STARLINK-4086,1 52833U 22062D   22310.48749874 -.00000045  00000-0  15300-4 0  9995,2 52833  53.2171 107.3202 0001596  52.9664 307.1474 15.08829694 21720,6917.9119999999975,95.438,540.881,538.673,0.0
52833.0,STARLINK-4086,PAYLOAD,2022-11-07 09:57:23,15.08849621,0.000174,53.2167,103.1564,55.8844,304.2314,-6.0804e-05,-1.256e-05,0.0,0 STARLINK-4086,1 52833U 22062D   22311.41485429 -.00001256  00000-0 -60804-4 0  9997,2 52833  53.2167 103.1564 0001740  55.8844 304.2314 15.08849621 21861,6917.851,95.437,540.92,538.512,0.0
52833.0,STARLINK-4086,PAYLOAD,2022-11-07 16:18:56,15.08831607,0.0001249,53.2169,101.9659,63.3439,296.7681,0.00014601,2.036e-05,0.0,0 STARLINK-4086,1 52833U 22062D   22311.67982377  .00002036  00000-0  14601-3 0  9997,2 52833  53.2169 101.9659 0001249  63.3439 296.7681 15.08831607 21904,6917.906,95.438,540.635,538.9069999999998,0.0
52833.0,STARLINK-4086,PAYLOAD,2022-11-08 06:37:24,15.08850384,0.0001529,53.2171,99.2908,54.4544,305.6591,0.00037645,5.710000000000001e-05,0.0,0 STARLINK-4086,1 52833U 22062D   22312.27597838  .00005710  00000-0  37645-3 0  9993,2 52833  53.2171  99.2908 0001529  54.4544 305.6591 15.08850384 21994,6917.849,95.437,540.771,538.656,0.0
52833.0,STARLINK-4086,PAYLOAD,2022-11-08 09:48:10,15.08858542,0.0001489,53.2165,98.6952,60.3004,299.8136,0.00059223,9.155e-05,0.0,0 STARLINK-4086,1 52833U 22062D   22312.40845598  .00009155  00000-0  59223-3 0  9990,2 52833  53.2165  98.6952 0001489  60.3004 299.8136 15.08858542 22018,6917.824000000001,95.436,540.719,538.659,0.0
